[{"OBJECT_NAME":"STARLINK-5345","OBJECT_ID":"2023-065Q","EPOCH":"2026-03-09T11:27:28.546272","MEAN_MOTION":15.02531997,"ECCENTRICITY":0.00013863,"INCLINATION":43.0037,"RA_OF_ASC_NODE":211.422,"ARG_OF_PERICENTER":272.0276,"MEAN_ANOMALY":88.0407,"EPHEMERIS_TYPE":0,"CLASSIFICATION_TYPE":"U","NORAD_CAT_ID":56517,"ELEMENT_SET_NO":999,"REV_AT_EPOCH":15659,"BSTAR":-1.5983169e-5,"MEAN_MOTION_DOT":-4.2e-6,"MEAN_MOTION_DDOT":0},{"OBJECT_NAME":"FENGYUN 1C DEB","OBJECT_ID":"1999-025BUD","EPOCH":"2026-03-07T11:11:12.390432","MEAN_MOTION":14.83443137,"ECCENTRICITY":0.00894999,"INCLINATION":99.307,"RA_OF_ASC_NODE":307.5923,"ARG_OF_PERICENTER":70.0629,"MEAN_ANOMALY":291.0194,"EPHEMERIS_TYPE":0,"CLASSIFICATION_TYPE":"U","NORAD_CAT_ID":31441,"ELEMENT_SET_NO":999,"REV_AT_EPOCH":65343,"BSTAR":0.0080119516,"MEAN_MOTION_DOT":0.00071223,"MEAN_MOTION_DDOT":0}]
